#dP2018 10 10  0  0  0.00000000      96 __u+U IGS08 FIT  IAC
## 2022 259200.00000000   900.00000000 58401 0.0000000000000
+   92   C01C02C03C04C05C06C07C08C09C10C11C12C13C14E01E02E03
+        E04E05E07E08E09E11E12E14E18E19E21E24E25E26E27E30E31
+        G01G02G03G05G06G07G08G09G10G11G12G13G14G15G16G17G18
+        G19G20G21G22G23G24G25G26G27G28G29G30G31G32J01J02J03
+        J07R01R02R03R04R05R07R08R09R10R11R13R14R15R16R17R18
+        R19R20R21R22R23R24R26  0  0  0  0  0  0  0  0  0  0
++        12 11 12 12  0  8  8  8  7  8  8  8  8  7  7  7  7
++         7  7  7  7  7  7  7  7  7  7  8  7  7  7  7  7  6
++         3  3  3  3  3  3  3  3  3  3  3  3  3  3  3  3  3
++         3  3  3  3  3  3  3  3  3  3  3  3  3  3  9 12 11
++         0  5  5  5  5  5  5  5  5  5  5  5  5  5  5  5  5
++         5  5  5  5  5  5  8  0  0  0  0  0  0  0  0  0  0
%c M  cc GPS ccc cccc cccc cccc cccc ccccc ccccc ccccc ccccc
%c cc cc ccc ccc cccc cccc cccc cccc ccccc ccccc ccccc ccccc
%f  1.2500000  1.025000000  0.00000000000  0.000000000000000
%f  0.0000000  0.000000000  0.00000000000  0.000000000000000
%i    0    0    0    0      0      0      0      0         0
%i    0    0    0    0      0      0      0      0         0
/* INFORMATION & ANALYSIS CENTER (IAC)            FINAL DATA
/* S/V CLOCKS ARE ALIGNED TO GPS & GLONASS TIME RESPECTIVELY
/* USING THE BROADCAST EPHEMERIS                            
/* PCV:IGS14_2022 OL/AL:FES2004  NONE     YN ORB:CoN CLK:CoN
*  2018 10 10 23 30  0.00000000
PC01 -32301.193117  27065.176720    654.420492     57.799254
PC02   4437.097916  41957.066916    211.410557    -16.533947
PC03 -14797.705456  39485.856351    463.425594   -276.830592
PC04 -39605.116703  14388.656256    395.355448    -82.075732
PC05      0.000000      0.000000      0.000000 999999.999999
PC06 -21841.645903  21819.625893 -28571.616864    369.136603
PC07 -18237.501667  37661.136921  -2037.615376    -87.994586
PC08  -6119.428610  26478.892765  32386.448617    558.350209
PC09  -3316.546689  24361.638485 -34100.296517    187.591803
PC10  -8238.720484  39805.328450  10579.764539   -143.268624
PC11  21729.386683  -2131.530854 -17371.376989     56.753292
PC12  25372.893058  11735.245106   -525.659788    143.522006
PC13   6848.103989  35520.629922  21902.991978   -319.549489
PC14  24492.582090 -11770.627789  -6183.718879    575.414426
PE01  17657.140057  -6790.449524  22776.582702   -453.361236
PE02 -17651.166955   6835.180911 -22749.080661     30.707683
PE03 -29083.992334   4781.328789   2637.849190    -86.801589
PE04  20171.676115 -15605.429716  15029.651164   -135.091351
PE05 -21008.839434  -8902.398003  18854.481492    179.139390
PE07    678.006757  17327.322397 -23983.201278    -54.157091
PE08 -20006.737983  15711.441712 -15121.683947   6485.536675
PE09   -755.064628 -17194.834330  24087.781757   6651.573395
PE11  -9423.256742 -23993.308802 -14563.384846   5694.105934
PE12   9083.651953 -14122.064745 -24377.135939   5244.103032
PE14   8337.569400 -19004.915964 -24808.143292   6506.613905
PE18 -10885.632727  12036.449337  17380.971695   5842.218803
PE19  29037.211924  -3556.847382  -4507.364116    -11.515123
PE21  10973.912880  15403.468540  22772.793892   -498.867396
PE24   1770.126592 -27855.841083  -9841.152373   6448.137101
PE25 -10940.245904 -15450.440111 -22744.373133   2017.035430
PE26  21845.120896  19687.821799  -3437.057873   5379.348640
PE27  -2100.470640  28047.026048   9228.407776    613.680387
PE30 -13822.248646  24532.882143  -9126.662655   5443.301670
PE31  13950.367894 -24234.260397   9743.342715   1013.082883
PG01 -15823.574816  -1151.443724  21182.509088    -98.832263
PG02  15007.374501  20500.935087  -7536.478477    -26.424013
PG03 -20434.647029   9501.659157  13965.897672    147.356654
PG05  12433.330123   9331.119331 -21658.020295     -1.099305
PG06   5574.243372  25360.614979   5572.831622    351.498917
PG07  -9213.500287  15011.596818 -19496.689111    108.996019
PG08 -25810.645804  -5931.843651  -2903.293636   -118.148107
PG09 -19706.426299   8348.295510 -15775.460684    501.290677
PG10   8446.244524 -22542.910482  11062.642234    175.670858
PG11 -20857.883840  -3761.734706  15331.826361   -710.997660
PG12  19604.294060  -4336.419144  17104.385616    300.705405
PG13  21489.316738  12786.363399  -9097.157858    -87.350058
PG14  -8623.245397 -16192.533170  19570.816418    -96.800671
PG15  26713.864153   1710.186767    441.442802   -343.447638
PG16  -9416.487558 -11415.385707 -22195.963648      4.850693
PG17  -2063.407806  14782.832967  22369.393911    -45.671766
PG18 -17426.965940 -10907.114347  16421.912572     66.856275
PG19   8921.161770  15661.076614  19169.151820   -394.730975
PG20  13840.032717 -22576.821751    859.853577    517.102214
PG21   5214.920527 -18919.832808 -17127.156798   -323.329100
PG22 -18878.819106   2024.050854  18792.810969   -543.329492
PG23 -25324.839914   2171.357255  -8103.137152   -208.986653
PG24  17563.125063   5549.591630  19115.204388    -56.594485
PG25  19646.960033 -16091.048753   7164.371391   -659.861755
PG26  -1586.989449 -19054.595110 -18379.441457      5.580898
PG27 -20203.847660 -11961.770603 -12753.954850     -3.756816
PG28 -11785.134591  21783.029712  10293.719627    749.077752
PG29  20663.331292  -5895.394650 -15636.478313    359.522546
PG30  -1976.854718  23289.982459 -12432.671725     12.002372
PG31  -6441.132958 -25347.183479   3052.879080     87.626510
PG32    118.860242 -15422.168206  21670.421113   -397.043338
PJ01 -32615.128920  26381.748047    354.001475   -316.703116
PJ02 -19973.512295  29195.995894 -18772.985906      0.167850
PJ03 -29385.248061  23848.090469  23758.013960      0.238005
PJ07 -25385.837702  33663.438436    -29.376300 999999.999999
PR01  16913.231869   2286.504503 -18965.785330     33.272689
PR02  23559.622844  -9565.071123  -1628.592620    333.858702
PR03  14717.652907 -14402.522061  15059.696573    145.595120
PR04  -3151.548166 -10593.258540  23000.193861    279.448482
PR05 -18338.202487   -911.888131  17722.321026     12.767424
PR07 -14454.196166  14394.374814 -15308.770263    -49.033579
PR08   2370.262719  10886.665803 -22899.159597     20.974665
PR09 -11091.209028  10897.625311 -20180.169390     32.804987
PR10  -6379.378636  23414.711563  -7727.751505     33.282974
PR11   2431.396705  23137.361306  10425.213083    -43.511520
PR13  10761.167159 -10520.242610  20589.057048    -15.544345
PR14   6347.532760 -23474.477357   7752.620402     31.854042
PR15     22.333116 -24695.641174  -6174.042926    -17.516262
PR16  -9410.653840  -9949.017020 -21508.998187    103.651945
PR17   3561.134280 -10506.771268 -22959.943228    171.203322
PR18 -12005.019821 -17117.793964 -14637.860848     25.913630
PR19 -20670.252604 -14821.625042   1853.575767    -60.490843
PR20 -17314.818379  -2799.602641  18541.475179   -355.178653
PR21  -3020.043075  10765.546320  22927.666922     -8.179484
PR22  13577.498437  17297.316506  12826.111925    -64.977758
PR23  21435.893610  12335.975112  -6271.807762    183.582684
PR24  16645.084935   1467.102880 -19298.649606   -172.404959
PR26 -18125.799040  -3483.955242  17599.296575     23.527229
EOF
